{"type": "FeatureCollection", "features": [ {"type": "Feature", "properties": {"norad_id": 37867, "name": "COSMOS 2476 (744)", "group": "gnss", "lat": 54.56656015406657, "lon": 119.54226170939812, "alt_km": 19185.14715876712, "timestamp": "2025-12-17T10:52:54.595287+00:00", "meta": {"OBJECT_NAME": "COSMOS 2476 (744)", "OBJECT_ID": "2011-064A", "EPOCH": "2025-12-16T10:28:18.881760", "MEAN_MOTION": 2.13101449, "ECCENTRICITY": 0.00243502, "INCLINATION": 65.164, "RA_OF_ASC_NODE": 79.0464, "ARG_OF_PERICENTER": 234.7014, "MEAN_ANOMALY": 128.9307, "EPHEMERIS_TYPE": 0, "CLASSIFICATION_TYPE": "U", "NORAD_CAT_ID": 37867, "ELEMENT_SET_NO": 999, "REV_AT_EPOCH": 10987, "BSTAR": 0, "MEAN_MOTION_DOT": -5.4e-07, "MEAN_MOTION_DDOT": 0}, "tle": {"line1": "1 37867U 11064A   25350.43632965 -.00000054  00000+0  00000+0 0  9994", "line2": "2 37867  65.1640  79.0464 0024350 234.7014 128.9307  2.13101449109870"}}, "geometry": {"type": "Point", "coordinates": [119.54226170939812, 54.56656015406657]}}, {"type": "Feature", "properties": {"norad_id": 37868, "name": "COSMOS 2477 (745)", "group": "gnss", "lat": -55.304365311685224, "lon": -59.02387467492824, "alt_km": 19082.879826218505, "timestamp": "2025-12-17T10:52:54.595300+00:00", "meta": {"OBJECT_NAME": "COSMOS 2477 (745)", "OBJECT_ID": "2011-064B", "EPOCH": "2025-12-15T06:06:12.573216", "MEAN_MOTION": 2.1310289, "ECCENTRICITY": 0.00211455, "INCLINATION": 65.1707, "RA_OF_ASC_NODE": 79.1637, "ARG_OF_PERICENTER": 234.5873, "MEAN_ANOMALY": 123.1925, "EPHEMERIS_TYPE": 0, "CLASSIFICATION_TYPE": "U", "NORAD_CAT_ID": 37868, "ELEMENT_SET_NO": 999, "REV_AT_EPOCH": 10983, "BSTAR": 0, "MEAN_MOTION_DOT": -5.6e-07, "MEAN_MOTION_DDOT": 0}, "tle": {"line1": "1 37868U 11064B   25349.25431219 -.00000056  00000+0  00000+0 0  9994", "line2": "2 37868  65.1707  79.1637 0021145 234.5873 123.1925  2.13102890109838"}}, "geometry": {"type": "Point", "coordinates": [-59.02387467492824, -55.304365311685224]}}, {"type": "Feature", "properties": {"norad_id": 37869, "name": "COSMOS 2475 (743)", "group": "gnss", "lat": -18.622466894352286, "lon": -91.92595436328507, "alt_km": 19087.81417804164, "timestamp": "2025-12-17T10:52:54.595319+00:00", "meta": {"OBJECT_NAME": "COSMOS 2475 (743)", "OBJECT_ID": "2011-064C", "EPOCH": "2025-12-16T17:15:16.173216", "MEAN_MOTION": 2.1310159, "ECCENTRICITY": 0.00263578, "INCLINATION": 65.1784, "RA_OF_ASC_NODE": 79.1342, "ARG_OF_PERICENTER": 248.7608, "MEAN_ANOMALY": 108.5583, "EPHEMERIS_TYPE": 0, "CLASSIFICATION_TYPE": "U", "NORAD_CAT_ID": 37869, "ELEMENT_SET_NO": 999, "REV_AT_EPOCH": 10987, "BSTAR": 0, "MEAN_MOTION_DOT": -5.2e-07, "MEAN_MOTION_DDOT": 0}, "tle": {"line1": "1 37869U 11064C   25350.71893719 -.00000052  00000+0  00000+0 0  9991", "line2": "2 37869  65.1784  79.1342 0026357 248.7608 108.5583  2.13101590109877"}}, "geometry": {"type": "Point", "coordinates": [-91.92595436328507, -18.622466894352286]}}, {"type": "Feature", "properties": {"norad_id": 37948, "name": "BEIDOU-2 IGSO-5 (C10)", "group": "gnss", "lat": 43.77004304539652, "lon": -26.813300188401918, "alt_km": 36190.26591552731, "timestamp": "2025-12-17T10:52:54.595332+00:00", "meta": {"OBJECT_NAME": "BEIDOU-2 IGSO-5 (C10)", "OBJECT_ID": "2011-073A", "EPOCH": "2025-12-16T20:45:03.347712", "MEAN_MOTION": 1.00290524, "ECCENTRICITY": 0.01100285, "INCLINATION": 48.0123, "RA_OF_ASC_NODE": 273.8075, "ARG_OF_PERICENTER": 222.3616, "MEAN_ANOMALY": 354.0663, "EPHEMERIS_TYPE": 0, "CLASSIFICATION_TYPE": "U", "NORAD_CAT_ID": 37948, "ELEMENT_SET_NO": 999, "REV_AT_EPOCH": 5130, "BSTAR": 0, "MEAN_MOTION_DOT": -1.89e-06, "MEAN_MOTION_DDOT": 0}, "tle": {"line1": "1 37948U 11073A   25350.86462208 -.00000189  00000+0  00000+0 0  9991", "line2": "2 37948  48.0123 273.8075 0110028 222.3616 354.0663  1.00290524 51306"}}, "geometry": {"type": "Point", "coordinates": [-26.813300188401918, 43.77004304539652]}}, {"type": "Feature", "properties": {"norad_id": 37951, "name": "LUCH 5A (SDCM/PRN 140)", "group": "gnss", "lat": -2.780491734477315, "lon": 56.894309385506126, "alt_km": 35806.13808633734, "timestamp": "2025-12-17T10:52:54.595347+00:00", "meta": {"OBJECT_NAME": "LUCH 5A (SDCM/PRN 140)", "OBJECT_ID": "2011-074B", "EPOCH": "2025-12-16T12:21:38.678400", "MEAN_MOTION": 1.0027572, "ECCENTRICITY": 0.00053409, "INCLINATION": 8.2891, "RA_OF_ASC_NODE": 76.531, "ARG_OF_PERICENTER": 183.3714, "MEAN_ANOMALY": 178.0263, "EPHEMERIS_TYPE": 0, "CLASSIFICATION_TYPE": "U", "NORAD_CAT_ID": 37951, "ELEMENT_SET_NO": 999, "REV_AT_EPOCH": 5122, "BSTAR": 0, "MEAN_MOTION_DOT": -3e-07, "MEAN_MOTION_DDOT": 0}, "tle": {"line1": "1 37951U 11074B   25350.51503100 -.00000030  00000+0  00000+0 0  9990", "line2": "2 37951   8.2891  76.5310 0005340 183.3714 178.0263  1.00275720 51227"}}, "geometry": {"type": "Point", "coordinates": [56.894309385506126, -2.780491734477315]}}, {"type": "Feature", "properties": {"norad_id": 38091, "name": "BEIDOU-2 G5 (C05)", "group": "gnss", "lat": -2.6529634957538413, "lon": -51.66117815892962, "alt_km": 35732.95575779187, "timestamp": "2025-12-17T10:52:54.595359+00:00", "meta": {"OBJECT_NAME": "BEIDOU-2 G5 (C05)", "OBJECT_ID": "2012-008A", "EPOCH": "2025-12-16T15:20:55.893984", "MEAN_MOTION": 1.00267602, "ECCENTRICITY": 0.00130267, "INCLINATION": 3.1186, "RA_OF_ASC_NODE": 70.7002, "ARG_OF_PERICENTER": 231.2097, "MEAN_ANOMALY": 72.6715, "EPHEMERIS_TYPE": 0, "CLASSIFICATION_TYPE": "U", "NORAD_CAT_ID": 38091, "ELEMENT_SET_NO": 999, "REV_AT_EPOCH": 5053, "BSTAR": 0, "MEAN_MOTION_DOT": 7.8e-07, "MEAN_MOTION_DDOT": 0}, "tle": {"line1": "1 38091U 12008A   25350.63953581  .00000078  00000+0  00000+0 0  9990", "line2": "2 38091   3.1186  70.7002 0013026 231.2097  72.6715  1.00267602 50539"}}, "geometry": {"type": "Point", "coordinates": [-51.66117815892962, -2.6529634957538413]}}, {"type": "Feature", "properties": {"norad_id": 38250, "name": "BEIDOU-2 M3 (C11)", "group": "gnss", "lat": -13.456242856010817, "lon": 140.2931187929737, "alt_km": 21516.312521313914, "timestamp": "2025-12-17T10:52:54.595372+00:00", "meta": {"OBJECT_NAME": "BEIDOU-2 M3 (C11)", "OBJECT_ID": "2012-018A", "EPOCH": "2025-12-16T14:56:57.410880", "MEAN_MOTION": 1.86229923, "ECCENTRICITY": 0.00242949, "INCLINATION": 55.9166, "RA_OF_ASC_NODE": 311.0263, "ARG_OF_PERICENTER": 274.556, "MEAN_ANOMALY": 85.1519, "EPHEMERIS_TYPE": 0, "CLASSIFICATION_TYPE": "U", "NORAD_CAT_ID": 38250, "ELEMENT_SET_NO": 999, "REV_AT_EPOCH": 9254, "BSTAR": 0, "MEAN_MOTION_DOT": -9.5e-07, "MEAN_MOTION_DDOT": 0}, "tle": {"line1": "1 38250U 12018A   25350.62288670 -.00000095  00000+0  00000+0 0  9997", "line2": "2 38250  55.9166 311.0263 0024294 274.5560  85.1519  1.86229923 92549"}}, "geometry": {"type": "Point", "coordinates": [140.2931187929737, -13.456242856010817]}}, {"type": "Feature", "properties": {"norad_id": 38251, "name": "BEIDOU-2 M4 (C12)", "group": "gnss", "lat": -46.992843957972624, "lon": 176.93170249249593, "alt_km": 21498.37349656173, "timestamp": "2025-12-17T10:52:54.595383+00:00", "meta": {"OBJECT_NAME": "BEIDOU-2 M4 (C12)", "OBJECT_ID": "2012-018B", "EPOCH": "2025-12-13T07:59:48.422112", "MEAN_MOTION": 1.86229462, "ECCENTRICITY": 0.00154528, "INCLINATION": 55.8208, "RA_OF_ASC_NODE": 310.3658, "ARG_OF_PERICENTER": 277.4494, "MEAN_ANOMALY": 82.3644, "EPHEMERIS_TYPE": 0, "CLASSIFICATION_TYPE": "U", "NORAD_CAT_ID": 38251, "ELEMENT_SET_NO": 999, "REV_AT_EPOCH": 9248, "BSTAR": 0, "MEAN_MOTION_DOT": -9.5e-07, "MEAN_MOTION_DDOT": 0}, "tle": {"line1": "1 38251U 12018B   25347.33319933 -.00000095  00000+0  00000+0 0  9999", "line2": "2 38251  55.8208 310.3658 0015452 277.4494  82.3644  1.86229462 92489"}}, "geometry": {"type": "Point", "coordinates": [176.93170249249593, -46.992843957972624]}}, {"type": "Feature", "properties": {"norad_id": 38652, "name": "SES-5 (EGNOS/PRN 136)", "group": "gnss", "lat": -0.06695242750215083, "lon": -105.47360844204069, "alt_km": 35777.93092480078, "timestamp": "2025-12-17T10:52:54.595395+00:00", "meta": {"OBJECT_NAME": "SES-5 (EGNOS/PRN 136)", "OBJECT_ID": "2012-036A", "EPOCH": "2025-12-16T18:31:01.419744", "MEAN_MOTION": 1.00272275, "ECCENTRICITY": 0.00019226, "INCLINATION": 0.0586, "RA_OF_ASC_NODE": 304.6085, "ARG_OF_PERICENTER": 321.5573, "MEAN_ANOMALY": 102.2321, "EPHEMERIS_TYPE": 0, "CLASSIFICATION_TYPE": "U", "NORAD_CAT_ID": 38652, "ELEMENT_SET_NO": 999, "REV_AT_EPOCH": 4262, "BSTAR": 0, "MEAN_MOTION_DOT": 5.8e-07, "MEAN_MOTION_DDOT": 0}, "tle": {"line1": "1 38652U 12036A   25350.77154421  .00000058  00000+0  00000+0 0  9993", "line2": "2 38652   0.0586 304.6085 0001922 321.5573 102.2321  1.00272275 42622"}}, "geometry": {"type": "Point", "coordinates": [-105.47360844204069, -0.06695242750215083]}}, {"type": "Feature", "properties": {"norad_id": 38775, "name": "BEIDOU-2 M6 (C14)", "group": "gnss", "lat": 54.03166809642684, "lon": 135.17354062728776, "alt_km": 21523.234196336907, "timestamp": "2025-12-17T10:52:54.595407+00:00", "meta": {"OBJECT_NAME": "BEIDOU-2 M6 (C14)", "OBJECT_ID": "2012-050B", "EPOCH": "2025-12-16T06:22:47.654112", "MEAN_MOTION": 1.86230757, "ECCENTRICITY": 0.00113185, "INCLINATION": 56.3814, "RA_OF_ASC_NODE": 68.9504, "ARG_OF_PERICENTER": 343.5807, "MEAN_ANOMALY": 16.4038, "EPHEMERIS_TYPE": 0, "CLASSIFICATION_TYPE": "U", "NORAD_CAT_ID": 38775, "ELEMENT_SET_NO": 999, "REV_AT_EPOCH": 8990, "BSTAR": 0, "MEAN_MOTION_DOT": -8e-07, "MEAN_MOTION_DDOT": 0}, "tle": {"line1": "1 38775U 12050B   25350.26582933 -.00000080  00000+0  00000+0 0  9998", "line2": "2 38775  56.3814  68.9504 0011318 343.5807  16.4038  1.86230757 89902"}}, "geometry": {"type": "Point", "coordinates": [135.17354062728776, 54.03166809642684]}}]}